QIANFAN-33              
1 61566U 24185Q   25330.49654939  .00000496  00000+0  34878-3 0  9997
2 61566  88.9798  80.6153 0007481  33.1007 327.0637 13.96533440 66897
QIANFAN-34              
1 61567U 24185R   25330.45719854  .00000604  00000+0  38553-3 0  9997
2 61567  88.9775  80.2052 0006662  41.0244 319.1436 14.02284595 67070
QIANFAN-35              
1 61568U 24185S   25330.50999922  .00000993  00000+0  39543-3 0  9991
2 61568  88.9802  78.7813 0005842 358.2897   1.8276 14.27925111 67862
QIANFAN-36              
1 61569U 24185T   25330.50278486  .00000188  00000+0  25338-3 0  9990
2 61569  88.9781  82.7329 0007790  93.1747 267.0298 13.55580324 65725
QIANFAN-37              
1 62238U 24232B   25330.47610419  .00000167  00000+0  24040-3 0  9995
2 62238  89.0035  42.9692 0002546 116.7342 243.4070 13.50987053 96973
QIANFAN-38              
1 62239U 24232C   25330.50078463  .00000194  00000+0  28259-3 0  9993
2 62239  89.0042  42.8814 0013240 236.3398 123.6491 13.50976405 97033
QIANFAN-39              
1 62240U 24232D   25330.48784678  .00000701  00000+0  29072-3 0  9992
2 62240  89.0032  39.1664 0018183 128.4252 231.8577 14.25368687 99070
QIANFAN-40              
1 62241U 24232E   25330.45963244  .00000194  00000+0  28206-3 0  9992
2 62241  89.0069  42.4656 0012074 244.7785 115.2114 13.50975986 97393
